{"type":"FeatureCollection","features":[{"type":"Feature","geometry":{"type":"MultiPolygon","coordinates":[[[[122.43831121700009,11.616457430000025],[122.43427342200005,11.614258317000065],[122.43064175500001,11.614075440000022],[122.4320057430001,11.611266456000067],[122.42986400500001,11.605062148000059],[122.43123273600008,11.603428343000076],[122.43472115000009,11.603624683000021],[122.43686712700003,11.607467910000025],[122.44436808800003,11.612472877000073],[122.44448580200003,11.614889103000053],[122.43831121700009,11.616457430000025]]],[[[122.43119635100004,11.62532691000007],[122.42237258800003,11.621614855000075],[122.42238302500004,11.620069482000076],[122.4257561610001,11.621321583000054],[122.42856157100005,11.620229768000058],[122.42822934300011,11.617419165000058],[122.42385548100003,11.614135503000057],[122.42451564300006,11.612299389000043],[122.43059177600003,11.614680323000073],[122.43301498400001,11.614403194000033],[122.43706820200009,11.617418632000067],[122.43119635100004,11.62532691000007]]],[[[122.41703593700004,11.630473713000072],[122.41416046600011,11.629795596000065],[122.41188057200009,11.626413385000035],[122.41674133300012,11.618692415000055],[122.42190050300007,11.619905939000034],[122.42225586300003,11.621794031000036],[122.41785524800002,11.625019277000035],[122.4184886270001,11.629937607000045],[122.41703593700004,11.630473713000072]]],[[[122.42079726600002,11.63458706700004],[122.41987621300007,11.63401467400007],[122.42140886800007,11.625269758000059],[122.42943968000009,11.627826758000026],[122.4291290000001,11.633050413000035],[122.42544171200007,11.632768866000049],[122.42079726600002,11.63458706700004]]],[[[122.40479636300006,11.64533761000007],[122.40058917100009,11.641778440000053],[122.39804651700001,11.636310090000052],[122.40405010200004,11.63292708800003],[122.40601672800005,11.636854095000047],[122.41151278300003,11.636815944000034],[122.41273800300007,11.637925462000055],[122.41109290000009,11.64206684900006],[122.40479636300006,11.64533761000007]]],[[[122.42716352800005,11.650678661000029],[122.41882667300001,11.647056860000077],[122.41835200700007,11.642301306000036],[122.4202986140001,11.640375003000031],[122.42458974300007,11.641284086000041],[122.42499952500009,11.635636418000047],[122.43038855500004,11.634662391000063],[122.43093589300008,11.628916606000075],[122.43953144800003,11.619233050000048],[122.44604615600008,11.617267311000035],[122.44887372300002,11.613909463000027],[122.44963134000011,11.614562818000024],[122.45021579400009,11.611376664000034],[122.45901175000006,11.608399447000068],[122.45867627400003,11.611978917000044],[122.44391438900004,11.623384484000042],[122.43816789200002,11.631755110000029],[122.43210341200006,11.63592815900006],[122.42847451700004,11.650250928000048],[122.42716352800005,11.650678661000029]]],[[[122.41490747600005,11.654771427000071],[122.41071044900002,11.652887200000066],[122.41273879700009,11.648168758000054],[122.41565938000008,11.651005674000032],[122.41809194500001,11.651091002000044],[122.41490747600005,11.654771427000071]]],[[[122.57735727300008,11.553467966000028],[122.57643581600007,11.559887548000063],[122.5740132200001,11.564211372000045],[122.57024983500003,11.567126164000058],[122.55564891200004,11.571694971000056],[122.54558385300004,11.57784640500006],[122.5363586200001,11.579191794000053],[122.53581638600008,11.57534365600003],[122.53448533700009,11.575611563000052],[122.52896339300003,11.582172193000076],[122.52903459200002,11.584963925000068],[122.52704990200004,11.58406143700006],[122.50766246800004,11.592255943000055],[122.49573068300003,11.594997911000064],[122.49296844000003,11.590849470000023],[122.49511708600005,11.592655579000052],[122.49593442200012,11.588313693000032],[122.49311617,11.587127559000066],[122.49498380000011,11.585511573000076],[122.49485859800006,11.582480989000032],[122.49558830500007,11.584738860000073],[122.49799048500006,11.582745616000068],[122.4952140370001,11.58138974800005],[122.4963912710001,11.578036802000042],[122.49284171800002,11.569158436000066],[122.49372450600004,11.56865338700004],[122.49240285500002,11.569244860000026],[122.489507161,11.566584417000058],[122.48897412600002,11.562907908000057],[122.486671494,11.562001440000074],[122.4884743340001,11.56131025700006],[122.48654286500005,11.56093846300007],[122.48790012400002,11.560007848000055],[122.48114047500007,11.557422595000048],[122.48228992600002,11.555193122000048],[122.48120783000002,11.554405400000064],[122.47779523500003,11.556651134000049],[122.47565726100004,11.554047427000057],[122.47096899900009,11.553414021000037],[122.46876016500005,11.550986989000023],[122.46830521000004,11.553157783000074],[122.46742491500004,11.551866150000023],[122.46366675600007,11.551802494000071],[122.4625672840001,11.555530345000022],[122.46037213700004,11.551498579000054],[122.45743169400009,11.550082572000065],[122.45535929800008,11.553400907000025],[122.45245365400001,11.551626933000023],[122.45449028700011,11.55467163700007],[122.45173435100003,11.555152424000028],[122.44489907400009,11.566328335000037],[122.44183043600003,11.568200198000056],[122.44332169600011,11.571272974000067],[122.44340656800011,11.576029279000068],[122.44182099200009,11.577977988000043],[122.44287042700012,11.580277472000034],[122.44564688100002,11.578369527000063],[122.45042308500001,11.57955931400005],[122.45432420500003,11.577334121000035],[122.46028454500004,11.580237305000026],[122.46533081100006,11.573567991000061],[122.47162127000001,11.571559772000057],[122.47398754300002,11.569306039000026],[122.47490498800005,11.56997964900006],[122.4759897020001,11.566393055000049],[122.47260110800005,11.565152979000061],[122.47694707300002,11.562347289000058],[122.48288146400012,11.562516299000038],[122.4846939790001,11.563935060000063],[122.48778488300002,11.570013135000067],[122.4869915810001,11.571760754000024],[122.48530272200003,11.572213171000044],[122.48393820400008,11.576173034000021],[122.47751157900007,11.57942730800005],[122.475414279,11.578249872000072],[122.47688620300005,11.579831309000042],[122.47601471500002,11.58119174500007],[122.46884381500001,11.586265927000056],[122.46577142100011,11.592014111000026],[122.46736289000012,11.600254446000065],[122.45621218000008,11.600279917000023],[122.44952933600007,11.608712285000024],[122.4452504300001,11.608556497000052],[122.44154499900003,11.604585346000022],[122.44172632000004,11.59399509900004],[122.439485321,11.595748567000044],[122.43993905000002,11.599383466000063],[122.43825665700001,11.600771546000033],[122.43462101900002,11.597831616000065],[122.42966672600005,11.59786423600002],[122.42869232100009,11.596154826000031],[122.42763334500012,11.598060198000042],[122.42308734400001,11.592551066000055],[122.42312350300006,11.593831864000038],[122.42188644100008,11.59329303100003],[122.42217894600003,11.591713537000032],[122.42013914900008,11.591728638000063],[122.42046042700008,11.595371981000028],[122.422547914,11.595835840000063],[122.41941612900007,11.601233015000048],[122.4211857460001,11.601270580000062],[122.42347775000007,11.597477307000077],[122.42923944300003,11.603057818000025],[122.42856851300007,11.605570808000039],[122.43049497900006,11.611373951000076],[122.4220176560001,11.611867607000022],[122.4220299430001,11.61516802400007],[122.42561513200008,11.61780667100004],[122.4248148580001,11.618463911000049],[122.41565124200008,11.61651252400003],[122.41428500100005,11.620809112000074],[122.41074434600012,11.617560112000035],[122.41265153900008,11.621271963000027],[122.4122057290001,11.623309462000066],[122.4102658490001,11.621699557000056],[122.41118779200008,11.626016254000035],[122.40972996500011,11.62950440800006],[122.41227971800004,11.62977793400006],[122.41323907700007,11.631505479000054],[122.41264511500003,11.635540671000058],[122.40670674000012,11.634947861000057],[122.40343657000005,11.629910254000038],[122.39729430400007,11.635406766000074],[122.39903536400004,11.638975863000041],[122.39861638600007,11.645491374000073],[122.40898080000011,11.646430459000044],[122.40941393800006,11.651882550000039],[122.4079912730001,11.652619536000032],[122.40363219800008,11.650380565000034],[122.40476180700011,11.649792638000065],[122.40224317600007,11.649529503000053],[122.40223677100005,11.653072885000029],[122.40467828900012,11.652063914000053],[122.40560067700005,11.657083990000046],[122.40879980800003,11.656064515000025],[122.40869410500011,11.657871441000054],[122.41018923800004,11.658399514000052],[122.41137474200002,11.656245431000059],[122.41276500200001,11.656346276000022],[122.41342595800006,11.658492138000042],[122.41585621500008,11.654913322000027],[122.41687116900005,11.656470898000066],[122.41868407700008,11.65579642800003],[122.42016265300003,11.650604798000074],[122.422182313,11.650840672000072],[122.42386033100001,11.653985387000034],[122.42507325000008,11.65257917300005],[122.42801834500005,11.653616574000068],[122.43138583400003,11.649521651000043],[122.4341786870001,11.638255379000043],[122.43901773200002,11.634607612000025],[122.44132808200004,11.635625455000024],[122.43975073700005,11.633258369000032],[122.44413810700007,11.626844518000041],[122.44570463100001,11.627729759000033],[122.44558636900001,11.625346556000068],[122.44907680600011,11.624669654000058],[122.4503610810001,11.622832907000031],[122.45122714700005,11.623545942000021],[122.45099450600003,11.622367514000075],[122.46090888300012,11.613729682000042],[122.4652185970001,11.612676106000038],[122.46671484500007,11.613898882000058],[122.46660559500003,11.612306510000053],[122.47043287600002,11.611138183000037],[122.4713329860001,11.609507528000051],[122.47398021600009,11.609907815000042],[122.47225113700006,11.609471159000066],[122.47209286100008,11.607912612000064],[122.4748124680001,11.60617134000006],[122.47654295100006,11.606971611000063],[122.47862348900003,11.603524708000066],[122.47973324200007,11.603893992000053],[122.4789473510001,11.602016794000065],[122.48219375500003,11.598516078000046],[122.48169583200001,11.594877937000035],[122.48372557900007,11.59648607400004],[122.48361259,11.59497293000004],[122.4862866310001,11.595658297000057],[122.4882763710001,11.593023751000032],[122.48951420300011,11.59844742200005],[122.49431496900002,11.604086042000063],[122.49311767900008,11.609025641000073],[122.45747772700008,11.63087878600004],[122.42056491200003,11.664587753000035],[122.3984647640001,11.693760773000065],[122.39119714500009,11.707436947000076],[122.39057183200009,11.712861306000036],[122.39267809400008,11.71321535900006],[122.39343412900007,11.718438356000036],[122.39061058700008,11.724785875000066],[122.38530058700007,11.727616094000041],[122.38530746700008,11.729066781000029],[122.39424381700007,11.72364329100003],[122.39712126100005,11.710076566000055],[122.39711601600004,11.717442592000054],[122.3921192890001,11.728414345000033],[122.38546608500008,11.734820390000039],[122.374858818,11.73831645200005],[122.36841591200005,11.738095572000077],[122.36889287300005,11.739271229000053],[122.36771741500002,11.739434368000047],[122.36598901400009,11.73319291000007],[122.36351156500007,11.734007661000021],[122.36502457900008,11.738556981000045],[122.34476466000001,11.738372656000024],[122.33773758900008,11.736526283000046],[122.33791456900008,11.735064848000036],[122.33663047400012,11.736111954000023],[122.3307489880001,11.735486940000044],[122.3076887410001,11.744560393000029],[122.28531002300008,11.759959061000075],[122.2668925370001,11.775437214000021],[122.25842803700004,11.785607028000072],[122.2578850430001,11.788997488000064],[122.2591415500001,11.791244612000071],[122.25666847500008,11.794151290000059],[122.24505779100002,11.78584298100003],[122.2384679160001,11.786739381000075],[122.2269929470001,11.793500696000024],[122.22384195200004,11.799351427000033],[122.224787708,11.804326530000026],[122.22208112500005,11.813653740000063],[122.21968638200008,11.813646590000076],[122.21519383400005,11.809666596000056],[122.2101419380001,11.807965495000076],[122.19824646200004,11.807840825000028],[122.20057383000005,11.806543250000061],[122.19966952700008,11.806371924000075],[122.19500874200003,11.807553625000025],[122.19508099900008,11.809020227000076],[122.179788185,11.815993664000075],[122.1760812340001,11.819139859000074],[122.1775402180001,11.82067094000007],[122.17625427400003,11.819529173000035],[122.17076052000004,11.822326043000032],[122.1698613420001,11.821245077000071],[122.16994163200002,11.822817950000058],[122.16699848200005,11.824691383000072],[122.16883554600008,11.820150069000022],[122.16752315700012,11.818295154000054],[122.16365833400005,11.825971569000046],[122.15353165800002,11.82426543400004],[122.13963618700006,11.824533789000043],[122.10243937000007,11.829644416000065],[122.0867349770001,11.834405111000024],[122.05245156800004,11.854343784000037],[122.03741744000001,11.865625581000074],[122.0327189730001,11.872912889000077],[122.0226300710001,11.882833623000067],[122.0184560460001,11.893225010000037],[122.00033174300006,11.90770238400006],[121.99938639400011,11.912869194000052],[121.99099784700002,11.910549310000022],[121.98914295000009,11.91311786600005],[121.9835184860001,11.914176540000028],[121.97622396200006,11.92034615700004],[121.97377019400005,11.920099741000058],[121.97031867400005,11.922972800000025],[121.96082769600002,11.93480502500006],[121.96062247100008,11.936800282000036],[121.95460669500005,11.939169738000032],[121.95004265400007,11.938205346000075],[121.95037166200007,11.92843203800004],[121.9487303520001,11.927692785000033],[121.94993502200009,11.927647379000064],[121.95003389900012,11.924852127000065],[121.94729195500008,11.917372750000027],[121.91675449600007,11.902394094000044],[121.91194777900012,11.902766462000045],[121.91186134000009,11.900690594000025],[121.9114562100001,11.902231591000032],[121.90072703600003,11.901572448000024],[121.89463762800005,11.900393972000074],[121.89156157200011,11.898018440000044],[121.88707202000012,11.899884822000047],[121.8846249930001,11.898967652000067],[121.88506039300012,11.89191881000005],[121.88197357400009,11.884735659000057],[121.88384624100001,11.87612471400007],[121.88000182000007,11.868466115000047],[121.87657434400012,11.86577202500007],[121.88211829600004,11.865269898000065],[121.88333204700007,11.854550109000058],[121.88700293000011,11.852557714000056],[121.88794136100012,11.847184028000072],[121.88904363800009,11.846826300000032],[121.88748906400008,11.846513970000046],[121.88676198000007,11.838010175000022],[121.88176701800012,11.832324499000038],[121.88322104400004,11.826022286000068],[121.88087760000008,11.820714284000076],[121.88078926500009,11.816529570000057],[121.87358103600002,11.799655672000029],[121.86497304000011,11.788299221000045],[121.86204974000009,11.780983756000069],[121.8531859950001,11.774352651000072],[121.84359594500006,11.764169970000069],[121.86717004600007,11.768326182000067],[121.87776924500008,11.771529970000074],[121.89276889900009,11.79982526300006],[121.89653425100005,11.80085217900006],[121.90380822800012,11.799311806000048],[121.90579927200008,11.797169285000052],[121.91169443800004,11.805310758000076],[121.93343850300005,11.821365564000075],[121.94539350500008,11.823728345000063],[121.96754248800005,11.82384922600005],[121.99037648900003,11.82763385800007],[122.00741093700003,11.824285599000063],[122.02240899100002,11.817209906000073],[122.06392905100006,11.794101714000021],[122.07541857100011,11.784862795000038],[122.0923394880001,11.776767171000074],[122.10177976800003,11.779390557000056],[122.10901278300003,11.779049931000031],[122.11963507500002,11.773013674000026],[122.1281677500001,11.763640585000076],[122.13207791700006,11.762211870000044],[122.14035267500003,11.763775151000061],[122.15647591200002,11.756762532000039],[122.15540608600008,11.746783459000028],[122.15783954500012,11.743110643000023],[122.160715363,11.741899440000054],[122.16310049700007,11.736474456000053],[122.16945530700002,11.732364552000035],[122.1695243800001,11.72759844500007],[122.17339977000006,11.716418246000046],[122.16951808400006,11.703401610000071],[122.17401514200003,11.70554603100004],[122.17457459100001,11.696275940000021],[122.17065234900008,11.685672361000059],[122.14606124000011,11.656123132000062],[122.14205087300002,11.641073437000045],[122.14370989200006,11.631853198000044],[122.14204835200007,11.62906057300006],[122.14231530000006,11.618848266000043],[122.14542100100005,11.60385185900003],[122.14911687500012,11.595908877000056],[122.14293310200003,11.579441943000063],[122.13948399700007,11.557853427000055],[122.141238971,11.55300274900003],[122.15046290400005,11.541309500000068],[122.15490996200003,11.531966966000027],[122.15140416200006,11.524207199000045],[122.14768554500006,11.519027254000036],[122.14430580100009,11.519452017000049],[122.135959737,11.505061038000065],[122.13431169100011,11.495484698000041],[122.13414358000011,11.473020229000042],[122.13594354600002,11.466628656000069],[122.16159341800005,11.445353982000029],[122.16475939000009,11.440168321000044],[122.16743032400007,11.427320184000052],[122.16787967700009,11.400919157000033],[122.18310280000003,11.396460957000045],[122.18810468400011,11.392383335000034],[122.19372804200009,11.374901635000072],[122.19191046500009,11.363839978000044],[122.18924641800004,11.360142933000077],[122.18641926600003,11.350139166000076],[122.18272222200005,11.34595280800005],[122.18254389100002,11.341997935000052],[122.18456384000001,11.332032606000041],[122.19194277500003,11.319999393000046],[122.19990772800008,11.311955905000048],[122.21426972200004,11.311229724000043],[122.2468685550001,11.31767639900005],[122.27312304000009,11.329970397000068],[122.28457033600012,11.337788511000042],[122.29410500200004,11.346676979000051],[122.29807632200004,11.34834911400003],[122.307316624,11.358372303000067],[122.32272178100004,11.370715178000069],[122.32608554300009,11.374853227000074],[122.33066536900003,11.38503061800003],[122.33654564100004,11.391278405000037],[122.33889209400002,11.40015535200007],[122.34515057400006,11.408734009000057],[122.34383648300002,11.413885789000062],[122.34602993900012,11.41838057700005],[122.346888895,11.42802212500004],[122.34910326300007,11.43138925200003],[122.34852762300011,11.435538662000056],[122.35076840300007,11.44225880600004],[122.3708233530001,11.427646246000052],[122.37639369800002,11.43510180800007],[122.39035794800009,11.444860576000053],[122.39150102100007,11.452060226000071],[122.40012524700012,11.45598420600004],[122.39832714500005,11.468335798000055],[122.399397539,11.474120096000036],[122.40213762700012,11.476117766000073],[122.40507282600004,11.477684428000032],[122.41485957700002,11.478370036000058],[122.42773217600006,11.478228268000066],[122.43921808000005,11.475965538000025],[122.45351579300007,11.479252978000034],[122.47382091800011,11.476262607000024],[122.48003528700008,11.481437853000045],[122.48361535700008,11.488979631000063],[122.48922915600008,11.486555622000026],[122.4951318300001,11.486716686000022],[122.50437050900007,11.484579476000022],[122.51400385200009,11.489480749000052],[122.53002524900012,11.493157942000039],[122.52769225800012,11.501654173000077],[122.52926438700001,11.50243436900007],[122.5305705940001,11.506314337000049],[122.52670540000008,11.512783739000042],[122.5326996450001,11.518185372000062],[122.53594172800001,11.535662641000044],[122.54055290300005,11.536009719000049],[122.54489137500002,11.534150374000035],[122.55077428000004,11.535207513000046],[122.55464336900002,11.53899599600004],[122.55496579300006,11.542381449000061],[122.55900710000003,11.544948735000048],[122.55968268600009,11.548532923000039],[122.56479972600005,11.546975991000068],[122.57376008400001,11.541323981000062],[122.57675165800003,11.542484715000057],[122.57652276300007,11.543913255000064],[122.57467893300009,11.543497083000034],[122.57446735200006,11.546669961000077],[122.57683022900005,11.54728115100005],[122.57760653800005,11.549103500000058],[122.57563908200007,11.551305053000021],[122.57735727300008,11.553467966000028]]],[[[121.92167722400006,11.999300319000042],[121.9063006990001,11.99096908000007],[121.90500536700006,11.98812164800006],[121.90733648500009,11.985453218000032],[121.90675574800002,11.982416924000063],[121.90913228400007,11.98029491400007],[121.909691769,11.977187454000045],[121.91421040700004,11.974341845000026],[121.92416211900002,11.961779904000025],[121.93037117200004,11.950715241000069],[121.93298089200005,11.939541924000025],[121.93742840200002,11.939359693000029],[121.93869316500002,11.940588568000067],[121.94116097900007,11.939587433000042],[121.94345064100003,11.940546480000023],[121.94581274200004,11.946215902000063],[121.9493655550001,11.947347903000036],[121.9478261810001,11.947749846000022],[121.94691713000009,11.950520218000065],[121.948316696,11.95209056300007],[121.9476402030001,11.954627174000052],[121.94405217200006,11.953743919000033],[121.94603614300001,11.956001419000074],[121.94243574300003,11.955995393000023],[121.9413225720001,11.957230948000074],[121.93826741300006,11.954435723000074],[121.93472403400006,11.955470123000055],[121.93437710300009,11.957106577000047],[121.93548962400007,11.957064769000056],[121.93681548300003,11.958457466000027],[121.93516753800009,11.957509671000025],[121.93414457500012,11.95850686600005],[121.93368233600006,11.960088130000031],[121.9349720780001,11.960913272000028],[121.932245082,11.96108031600005],[121.9272077070001,11.970022767000046],[121.93072978600003,11.97773939800004],[121.9300826970001,11.982099807000054],[121.92825107200008,11.980957681000064],[121.92594698900007,11.98330433600006],[121.92455626500009,11.990769562000025],[121.92583273800005,11.99174705300004],[121.92547046200002,11.99668377100005],[121.92822209200006,11.998221585000067],[121.92167722400006,11.999300319000042]]]]},"properties":{"shapeName":"Aklan","shapeISO":"","shapeID":"2640588B21218366338371","shapeGroup":"PHL","shapeType":"ADM2","source":"geoBoundaries; NAMRIA / PSA / OCHA Philippines","reference_year":2020,"license":"CC BY 3.0 IGO (original source); geoBoundaries attribution required","boundary_use":"Administrative context; simplified geometry"}}]}