{"type":"FeatureCollection","features":[{"type":"Feature","properties":{"shapeName":"Altavas","shapeISO":"","shapeID":"30758251B63045742301299","shapeGroup":"PHL","shapeType":"ADM3","source":"geoBoundaries; NAMRIA / PSA / OCHA Philippines","reference_year":2020,"license":"CC BY 3.0 IGO (original source); geoBoundaries attribution required","boundary_use":"Administrative context; simplified geometry"},"geometry":{"type":"Polygon","coordinates":[[[122.5326996450001,11.518185372000062],[122.52590124000005,11.52627239900005],[122.52139934900003,11.52580363800007],[122.51984030100004,11.527309157000047],[122.51832809100006,11.526733714000045],[122.51785970800006,11.528185703000077],[122.51563823200001,11.52682070000003],[122.5161869100001,11.525569447000066],[122.5146747010001,11.526218493000044],[122.51278109300006,11.524057238000069],[122.51076704400009,11.524057238000069],[122.50836490600011,11.52443863600007],[122.5083983620001,11.526064595000037],[122.506337475,11.525649741000052],[122.50576872400006,11.528232542000069],[122.50349527800006,11.527732463000063],[122.50249367200001,11.532194596000068],[122.49961702000007,11.532555364000075],[122.4976512500001,11.543403382000065],[122.49246563300005,11.545639637000022],[122.49174079300008,11.551145880000036],[122.48928650900007,11.553485715000022],[122.49015123000004,11.557173499000044],[122.48848564800005,11.561261210000055],[122.48114047500007,11.557422595000048],[122.48228992600002,11.555193122000048],[122.48120783000002,11.554405400000064],[122.47779523500003,11.556651134000049],[122.47565726100004,11.554047427000057],[122.47096899900009,11.553414021000037],[122.46876016500005,11.550986989000023],[122.46830521000004,11.553157783000074],[122.46742491500004,11.551866150000023],[122.46366675600007,11.551802494000071],[122.4625672840001,11.555530345000022],[122.46037213700004,11.551498579000054],[122.45736348300011,11.550087984000072],[122.45784453400006,11.55112712600004],[122.45535929800008,11.553400907000025],[122.45242553900005,11.55164895300004],[122.45462060800003,11.554391227000053],[122.45155496300004,11.556290897000054],[122.44708347800008,11.55719325900003],[122.44590499100002,11.555919733000053],[122.44683637600008,11.55405696400004],[122.44225548500003,11.551376858000026],[122.42969927100012,11.548936196000056],[122.42788872000006,11.550453144000073],[122.41999091800005,11.551678399000025],[122.41991705400005,11.548739143000034],[122.41601054800003,11.543065910000053],[122.411957518,11.543065910000053],[122.40755731400009,11.539331301000061],[122.40577596900005,11.533016830000065],[122.41034897600002,11.52211605900004],[122.40186764400005,11.514538694000066],[122.40091050300009,11.511587510000027],[122.40326347400003,11.494545085000027],[122.40737120400001,11.483298681000065],[122.40507282600004,11.477684428000032],[122.42773217600006,11.478228268000066],[122.43921808000005,11.475965538000025],[122.45351579300007,11.479252978000034],[122.47382091800011,11.476262607000024],[122.48003528700008,11.481437853000045],[122.48361535700008,11.488979631000063],[122.48922915600008,11.486555622000026],[122.4951318300001,11.486716686000022],[122.50437050900007,11.484579476000022],[122.51400385200009,11.489480749000052],[122.53002524900012,11.493157942000039],[122.52769225800012,11.501654173000077],[122.52926438700001,11.50243436900007],[122.5305705940001,11.506314337000049],[122.52670540000008,11.512783739000042],[122.5326996450001,11.518185372000062]]]}},{"type":"Feature","properties":{"shapeName":"Balete","shapeISO":"","shapeID":"30758251B65847128080579","shapeGroup":"PHL","shapeType":"ADM3","source":"geoBoundaries; NAMRIA / PSA / OCHA Philippines","reference_year":2020,"license":"CC BY 3.0 IGO (original source); geoBoundaries attribution required","boundary_use":"Administrative context; simplified geometry"},"geometry":{"type":"Polygon","coordinates":[[[122.41999091800005,11.551678399000025],[122.41803891000006,11.554625548000047],[122.4144203190001,11.569223738000062],[122.41130836600007,11.573024791000023],[122.41065828100011,11.575714154000025],[122.413002043,11.575569922000057],[122.41252127100006,11.576904063000029],[122.41417039600003,11.577700679000031],[122.41228086900003,11.580486781000047],[122.4079443490001,11.584444381000026],[122.40247107400012,11.584191769000029],[122.40073324900004,11.585777463000056],[122.40292776100011,11.588147536000065],[122.40040407200001,11.591636811000058],[122.3837404200001,11.594128563000027],[122.38335088500003,11.600496752000026],[122.37491793000004,11.608394222000072],[122.37691653700006,11.612349438000024],[122.37683676400002,11.616446953000036],[122.37403963400004,11.617673764000074],[122.37222395300012,11.615956228000073],[122.3701425490001,11.615177797000058],[122.37070220800001,11.613032438000062],[122.36566527600007,11.615282733000072],[122.36199251300002,11.613020778000077],[122.358739495,11.613930224000057],[122.35651251800005,11.61275260800005],[122.35200588100008,11.59863886100004],[122.34553829700008,11.593335614000068],[122.34186159600006,11.587557724000021],[122.34224949600002,11.583955796000055],[122.34008833900009,11.579550360000042],[122.34160388100008,11.574855365000076],[122.34492527800012,11.571151649000058],[122.345427072,11.56546465200006],[122.340934822,11.56309905300003],[122.33735058100001,11.556671313000038],[122.33652067100002,11.549646124000049],[122.33317171300007,11.545552955000062],[122.33508540300011,11.538270302000058],[122.33184276300005,11.537100825000039],[122.33846095400008,11.526316911000038],[122.34092735700006,11.519066101000021],[122.34450612900002,11.515651492000075],[122.3502276480001,11.508132837000062],[122.3551168140001,11.510044090000065],[122.35869285500007,11.509697660000029],[122.3659284800001,11.50832028000002],[122.36656778300005,11.505565213000068],[122.36673603700001,11.499205208000035],[122.36399910400007,11.48992879900004],[122.35144734800008,11.47402317700005],[122.35026956900003,11.468728781000038],[122.34090034000008,11.451226920000067],[122.34244036600012,11.445644327000025],[122.34691606700005,11.443791483000041],[122.34951486000011,11.439508286000034],[122.35076840300007,11.44225880600004],[122.3708233530001,11.427646246000052],[122.37639369800002,11.43510180800007],[122.39035794800009,11.444860576000053],[122.39150102100007,11.452060226000071],[122.40012524700012,11.45598420600004],[122.39832714500005,11.468335798000055],[122.399397539,11.474120096000036],[122.40507282600004,11.477684428000032],[122.40737120400001,11.483298681000065],[122.40326347400003,11.494545085000027],[122.40091050300009,11.511587510000027],[122.40186764400005,11.514538694000066],[122.41034897600002,11.52211605900004],[122.40577596900005,11.533016830000065],[122.40755731400009,11.539331301000061],[122.411957518,11.543065910000053],[122.41601054800003,11.543065910000053],[122.41991705400005,11.548739143000034],[122.41999091800005,11.551678399000025]]]}},{"type":"Feature","properties":{"shapeName":"Banga","shapeISO":"","shapeID":"30758251B13243335131370","shapeGroup":"PHL","shapeType":"ADM3","source":"geoBoundaries; NAMRIA / PSA / OCHA Philippines","reference_year":2020,"license":"CC BY 3.0 IGO (original source); geoBoundaries attribution required","boundary_use":"Administrative context; simplified geometry"},"geometry":{"type":"Polygon","coordinates":[[[122.37222395300012,11.615956228000073],[122.36775850800007,11.62124024800005],[122.36786125100002,11.63044971100004],[122.35260467800003,11.650326501000052],[122.3554299870001,11.656122009000057],[122.339941124,11.665985981000063],[122.33505461900006,11.663993044000051],[122.32934412100008,11.655818811000074],[122.32534431400006,11.65551687900006],[122.32382648500004,11.650292455000056],[122.31446951700002,11.644969181000022],[122.31371976100002,11.636316985000065],[122.30938616500009,11.632913089000056],[122.30903189300011,11.624780496000028],[122.3134346710001,11.621139246000041],[122.3121432690001,11.618199244000039],[122.31285766200006,11.609516623000047],[122.31155539100007,11.608416631000068],[122.31398420500011,11.603609142000039],[122.31296756900008,11.595036427000025],[122.3035493110001,11.584279684000023],[122.30476377100001,11.57871340500003],[122.30386851000003,11.575961971000027],[122.29849460900004,11.575132360000055],[122.2932625520001,11.569116578000035],[122.29332923600009,11.566463722000037],[122.29076002200009,11.563312153000027],[122.29029185400009,11.556460917000038],[122.2915136580001,11.55198477600004],[122.29873229900011,11.547779738000031],[122.30394704600008,11.540874034000069],[122.30792571200004,11.542125678000048],[122.31008889100008,11.539151321000077],[122.308590879,11.535331392000046],[122.3115120010001,11.534906956000043],[122.31314410000005,11.532739180000021],[122.31682027400007,11.534026346000076],[122.32707670800005,11.534157838000056],[122.33184276300005,11.537100825000039],[122.33508540300011,11.538270302000058],[122.33317171300007,11.545552955000062],[122.33652067100002,11.549646124000049],[122.33735058100001,11.556671313000038],[122.340934822,11.56309905300003],[122.345427072,11.56546465200006],[122.34492527800012,11.571151649000058],[122.34160388100008,11.574855365000076],[122.34008833900009,11.579550360000042],[122.34224949600002,11.583955796000055],[122.34186159600006,11.587557724000021],[122.34553829700008,11.593335614000068],[122.35200588100008,11.59863886100004],[122.35651251800005,11.61275260800005],[122.358739495,11.613930224000057],[122.36199251300002,11.613020778000077],[122.36566527600007,11.615282733000072],[122.37070220800001,11.613032438000062],[122.3701425490001,11.615177797000058],[122.37222395300012,11.615956228000073]]]}},{"type":"Feature","properties":{"shapeName":"Batan","shapeISO":"","shapeID":"30758251B47608215220004","shapeGroup":"PHL","shapeType":"ADM3","source":"geoBoundaries; NAMRIA / PSA / OCHA Philippines","reference_year":2020,"license":"CC BY 3.0 IGO (original source); geoBoundaries attribution required","boundary_use":"Administrative context; simplified geometry"},"geometry":{"type":"MultiPolygon","coordinates":[[[[122.5326996450001,11.518185372000062],[122.53594172800001,11.535662641000044],[122.54055290300005,11.536009719000049],[122.54489137500002,11.534150374000035],[122.55077428000004,11.535207513000046],[122.55464336900002,11.53899599600004],[122.55496579300006,11.542381449000061],[122.55900710000003,11.544948735000048],[122.55968268600009,11.548532923000039],[122.56479972600005,11.546975991000068],[122.57376008400001,11.541323981000062],[122.57675165800003,11.542484715000057],[122.57652276300007,11.543913255000064],[122.57467893300009,11.543497083000034],[122.57446735200006,11.546669961000077],[122.57683022900005,11.54728115100005],[122.57760653800005,11.549103500000058],[122.57563908200007,11.551305053000021],[122.57735727300008,11.553467966000028],[122.57643581600007,11.559887548000063],[122.5740132200001,11.564211372000045],[122.57040266500007,11.56704803100007],[122.55564891200004,11.571694971000056],[122.54592161700009,11.577766160000067],[122.5363586200001,11.579191794000053],[122.53581638600008,11.57534365600003],[122.53448533700009,11.575611563000052],[122.52896339300003,11.582172193000076],[122.52903459200002,11.584963925000068],[122.52704990200004,11.58406143700006],[122.50766246800004,11.592255943000055],[122.49664015600001,11.59495080000005],[122.49447435200011,11.594212567000056],[122.49296844000003,11.590849470000023],[122.49511708600005,11.592655579000052],[122.4958153230001,11.587975732000075],[122.49311617,11.587127559000066],[122.49498380000011,11.585511573000076],[122.49485859800006,11.582480989000032],[122.49558830500007,11.584738860000073],[122.4979893520001,11.58274083200007],[122.4952140370001,11.58138974800005],[122.4963912710001,11.578036802000042],[122.49284171800002,11.569158436000066],[122.49372450600004,11.56865338700004],[122.49240285500002,11.569244860000026],[122.489507161,11.566584417000058],[122.48897412600002,11.562907908000057],[122.486671494,11.562001440000074],[122.48848564800005,11.561261210000055],[122.49015123000004,11.557173499000044],[122.48928650900007,11.553485715000022],[122.49174079300008,11.551145880000036],[122.49246563300005,11.545639637000022],[122.4976512500001,11.543403382000065],[122.49961702000007,11.532555364000075],[122.50249367200001,11.532194596000068],[122.50349527800006,11.527732463000063],[122.50576872400006,11.528232542000069],[122.506337475,11.525649741000052],[122.5083983620001,11.526064595000037],[122.50836490600011,11.52443863600007],[122.51076704400009,11.524057238000069],[122.51278109300006,11.524057238000069],[122.5146747010001,11.526218493000044],[122.5161869100001,11.525569447000066],[122.51563823200001,11.52682070000003],[122.51785970800006,11.528185703000077],[122.51832809100006,11.526733714000045],[122.51984030100004,11.527309157000047],[122.52139934900003,11.52580363800007],[122.52590124000005,11.52627239900005],[122.5326996450001,11.518185372000062]]],[[[122.45155496300004,11.556290897000054],[122.44489907400009,11.566328335000037],[122.44183043600003,11.568200198000056],[122.44332169600011,11.571272974000067],[122.44340656800011,11.576029279000068],[122.44182099200009,11.577977988000043],[122.44287042700012,11.580277472000034],[122.44564688100002,11.578369527000063],[122.45042308500001,11.57955931400005],[122.45432420500003,11.577334121000035],[122.46028454500004,11.580237305000026],[122.46533081100006,11.573567991000061],[122.47162127000001,11.571559772000057],[122.47398754300002,11.569306039000026],[122.47490498800005,11.56997964900006],[122.4759897020001,11.566393055000049],[122.47260110800005,11.565152979000061],[122.47694707300002,11.562347289000058],[122.48354362200007,11.56294713400007],[122.48776407300011,11.570119704000035],[122.48530272200003,11.572213171000044],[122.48396316900005,11.576152387000036],[122.47751157900007,11.57942730800005],[122.47580495200009,11.577977021000038],[122.47688620300005,11.579831309000042],[122.47601471500002,11.58119174500007],[122.46884381500001,11.586265927000056],[122.46577142100011,11.592014111000026],[122.46736289000012,11.600254446000065],[122.45621218000008,11.600279917000023],[122.44953717400006,11.608709612000041],[122.4452504300001,11.608556497000052],[122.44154499900003,11.604585346000022],[122.44172632000004,11.59399509900004],[122.439485321,11.595748567000044],[122.43993905000002,11.599383466000063],[122.43825665700001,11.600771546000033],[122.43462101900002,11.597831616000065],[122.42966672600005,11.59786423600002],[122.42869232100009,11.596154826000031],[122.42763334500012,11.598060198000042],[122.42308734400001,11.592551066000055],[122.42312350300006,11.593831864000038],[122.42188644100008,11.59329303100003],[122.4214689690001,11.591114450000077],[122.41970792600011,11.592228],[122.42046042700008,11.595371981000028],[122.42254600700005,11.595847048000053],[122.41959187900011,11.600793140000064],[122.4180993650001,11.606102261000046],[122.41601918700007,11.601616428000057],[122.41281725500005,11.601863397000045],[122.40963062300011,11.605908679000038],[122.40592025500007,11.60615348600004],[122.40120556700003,11.612875200000076],[122.40223492100006,11.615711146000024],[122.4013528370001,11.617261847000066],[122.39615524800001,11.619834150000031],[122.3944656970001,11.619218282000077],[122.394999718,11.613977753000029],[122.3938880930001,11.611481250000054],[122.38449737500002,11.615232525000067],[122.37849810800003,11.613919553000073],[122.37691653700006,11.612349438000024],[122.37491793000004,11.608394222000072],[122.38335088500003,11.600496752000026],[122.3837404200001,11.594128563000027],[122.40040407200001,11.591636811000058],[122.40292776100011,11.588147536000065],[122.40073324900004,11.585777463000056],[122.40247107400012,11.584191769000029],[122.4079443490001,11.584444381000026],[122.41228086900003,11.580486781000047],[122.41417039600003,11.577700679000031],[122.41252127100006,11.576904063000029],[122.413002043,11.575569922000057],[122.41065828100011,11.575714154000025],[122.41130836600007,11.573024791000023],[122.4144203190001,11.569223738000062],[122.41803891000006,11.554625548000047],[122.41999091800005,11.551678399000025],[122.42788872000006,11.550453144000073],[122.42969927100012,11.548936196000056],[122.44225548500003,11.551376858000026],[122.44683637600008,11.55405696400004],[122.44590499100002,11.555919733000053],[122.44708347800008,11.55719325900003],[122.45155496300004,11.556290897000054]]]]}},{"type":"Feature","properties":{"shapeName":"Buruanga","shapeISO":"","shapeID":"30758251B13328482909488","shapeGroup":"PHL","shapeType":"ADM3","source":"geoBoundaries; NAMRIA / PSA / OCHA Philippines","reference_year":2020,"license":"CC BY 3.0 IGO (original source); geoBoundaries attribution required","boundary_use":"Administrative context; simplified geometry"},"geometry":{"type":"Polygon","coordinates":[[[121.88508357400008,11.893971373000056],[121.88197357400009,11.884735659000057],[121.883840125,11.876100751000024],[121.88000182000007,11.868466115000047],[121.87657434400012,11.86577202500007],[121.88211829600004,11.865269898000065],[121.88333204700007,11.854550109000058],[121.88700293000011,11.852557714000056],[121.88794136100012,11.847184028000072],[121.88904363800009,11.846826300000032],[121.88748906400008,11.846513970000046],[121.88676198000007,11.838010175000022],[121.88176701800012,11.832324499000038],[121.88322104400004,11.826022286000068],[121.87884621400008,11.810309381000025],[121.87502163700003,11.805212030000064],[121.87318263200007,11.798958411000058],[121.86497304000011,11.788299221000045],[121.861268214,11.779935851000062],[121.8531859950001,11.774352651000072],[121.84359594500006,11.764169970000069],[121.86717004600007,11.768326182000067],[121.87776924500008,11.771529970000074],[121.89276889900009,11.79982526300006],[121.89653425100005,11.80085217900006],[121.90380822800012,11.799311806000048],[121.90579927200008,11.797169285000052],[121.90807842200002,11.801634025000055],[121.91320544400003,11.806624661000058],[121.91904945400006,11.80968342600005],[121.93025749500009,11.819468708000045],[121.93666550700004,11.822630463000053],[121.96754248800005,11.82384922600005],[121.99037648900003,11.82763385800007],[122.0033233050001,11.825534597000058],[121.99253649900004,11.835753676000024],[121.98186323900006,11.842187912000043],[121.96918401100004,11.847070361000021],[121.9649449850001,11.851536477000025],[121.95196391500008,11.856769548000045],[121.93335604600009,11.858689274000028],[121.9123337200001,11.86910664800007],[121.90572223800007,11.870509535000053],[121.88508357400008,11.893971373000056]]]}},{"type":"Feature","properties":{"shapeName":"Ibajay","shapeISO":"","shapeID":"30758251B24388448757946","shapeGroup":"PHL","shapeType":"ADM3","source":"geoBoundaries; NAMRIA / PSA / OCHA Philippines","reference_year":2020,"license":"CC BY 3.0 IGO (original source); geoBoundaries attribution required","boundary_use":"Administrative context; simplified geometry"},"geometry":{"type":"Polygon","coordinates":[[[122.22183007800004,11.813700832000052],[122.21015091900006,11.807967692000034],[122.19824646200004,11.807840825000028],[122.20057383000005,11.806543250000061],[122.19966952700008,11.806371924000075],[122.19500874200003,11.807553625000025],[122.19508099900008,11.809020227000076],[122.179788185,11.815993664000075],[122.1760812340001,11.819139859000074],[122.1775402180001,11.82067094000007],[122.17625427400003,11.819529173000035],[122.17076052000004,11.822326043000032],[122.1698613420001,11.821245077000071],[122.16994163200002,11.822817950000058],[122.16699848200005,11.824691383000072],[122.16883554600008,11.820150069000022],[122.16752315700012,11.818295154000054],[122.16365833400005,11.825971569000046],[122.15353165800002,11.82426543400004],[122.13963618700006,11.824533789000043],[122.10169358200005,11.829836091000061],[122.09682921100011,11.82098131600003],[122.0964236860001,11.816243066000027],[122.09768295100002,11.814386185000046],[122.09612487700008,11.805848799000046],[122.09860071900005,11.801174580000065],[122.10116193500005,11.80042755900007],[122.1033723920001,11.79474704200004],[122.10399619100008,11.787607797000021],[122.10901278300003,11.779049931000031],[122.11963507500002,11.773013674000026],[122.1281677500001,11.763640585000076],[122.13207791700006,11.762211870000044],[122.14035267500003,11.763775151000061],[122.15647591200002,11.756762532000039],[122.15540608600008,11.746783459000028],[122.15783954500012,11.743110643000023],[122.160715363,11.741899440000054],[122.16310049700007,11.736474456000053],[122.16945530700002,11.732364552000035],[122.1695243800001,11.72759844500007],[122.17339977000006,11.716418246000046],[122.16951808400006,11.703401610000071],[122.17401514200003,11.70554603100004],[122.17457459100001,11.696275940000021],[122.17065234900008,11.685672361000059],[122.16140456900007,11.675720309000042],[122.1606847590001,11.673186122000061],[122.14606124000011,11.656123132000062],[122.1431978710001,11.64543599600006],[122.14523403900012,11.637301084000057],[122.15435656500006,11.634327816000052],[122.16624963400011,11.634530539000025],[122.17915631800008,11.631557271000077],[122.20328032900011,11.634868410000024],[122.21179468600008,11.638855291000027],[122.21347301700007,11.642529722000063],[122.21330111000009,11.647686943000053],[122.21665330400003,11.65353179300007],[122.21498563700004,11.661561300000074],[122.21103730400012,11.666196300000024],[122.21256441800006,11.668958631000066],[122.20966066100004,11.672659499000076],[122.20091473200011,11.704206308000039],[122.20519611500004,11.731149491000053],[122.206961094,11.758254922000049],[122.21045987600007,11.771848435000038],[122.21624649900002,11.785294770000064],[122.22183007800004,11.813700832000052]]]}},{"type":"Feature","properties":{"shapeName":"Kalibo","shapeISO":"","shapeID":"30758251B59047348388505","shapeGroup":"PHL","shapeType":"ADM3","source":"geoBoundaries; NAMRIA / PSA / OCHA Philippines","reference_year":2020,"license":"CC BY 3.0 IGO (original source); geoBoundaries attribution required","boundary_use":"Administrative context; simplified geometry"},"geometry":{"type":"Polygon","coordinates":[[[122.3554299870001,11.656122009000057],[122.35930740800006,11.663778439000055],[122.36465724400011,11.668169412000054],[122.36699052300003,11.668293104000043],[122.36760336000009,11.670041656000024],[122.369818441,11.670559699000023],[122.3699825330001,11.672375653000074],[122.37301276900007,11.673950938000075],[122.37744325900007,11.672124045000032],[122.38160026100002,11.666719941000053],[122.38163308000003,11.663908495000044],[122.37913887800005,11.661972207000076],[122.38344903400002,11.660090616000048],[122.3888312580001,11.66336152100007],[122.38919226100006,11.66815301400004],[122.39170834200002,11.66929071900006],[122.39098633600008,11.670625335000068],[122.39350241600005,11.670559699000023],[122.39576688900001,11.667879526000036],[122.39396187500006,11.662792667000076],[122.40101783900002,11.663372460000062],[122.40276274400003,11.66691488500004],[122.40463566800008,11.667593012000054],[122.40401289700003,11.67043007500007],[122.40703448500005,11.670439302000034],[122.40650859100003,11.67227532000004],[122.40491863200009,11.671346038000024],[122.40440146100002,11.672880017000068],[122.41191625800002,11.674694739000074],[122.41021865900007,11.675587535000034],[122.4104835390001,11.677755790000049],[122.39840144800007,11.693853842000067],[122.39119714500009,11.707436947000076],[122.39057183200009,11.712861306000036],[122.39267809400008,11.71321535900006],[122.39343412900007,11.718438356000036],[122.39061058700008,11.724785875000066],[122.38530058700007,11.727616094000041],[122.38530746700008,11.729066781000029],[122.39419438300001,11.723721453000053],[122.39712126100005,11.710076566000055],[122.39689236800007,11.714080706000061],[122.39745378900011,11.713299499000073],[122.39623097600008,11.72061196900006],[122.39112249200002,11.72984699400007],[122.38266961600004,11.736015660000021],[122.37445671600005,11.738385246000064],[122.36841591200005,11.738095572000077],[122.36868480200008,11.739350210000055],[122.36761846000002,11.739260245000025],[122.36598901400009,11.73319291000007],[122.36468202800006,11.73362273400005],[122.36231906600005,11.726280897000038],[122.36342765000006,11.719440486000053],[122.36260032500002,11.715905345000067],[122.35960241900011,11.711908136000034],[122.35742156100002,11.713330616000064],[122.35439976500004,11.712515515000064],[122.35642568000003,11.708963191000066],[122.35411779600008,11.704223047000028],[122.34600926700011,11.702368824000075],[122.34688968500006,11.698090541000056],[122.343776122,11.695151226000064],[122.3445556590001,11.68852516000004],[122.3426680770001,11.686016331000076],[122.34126114600008,11.676805829000045],[122.34226940100007,11.671053404000077],[122.339941124,11.665985981000063],[122.3554299870001,11.656122009000057]]]}},{"type":"Feature","properties":{"shapeName":"Lezo","shapeISO":"","shapeID":"30758251B65043803539703","shapeGroup":"PHL","shapeType":"ADM3","source":"geoBoundaries; NAMRIA / PSA / OCHA Philippines","reference_year":2020,"license":"CC BY 3.0 IGO (original source); geoBoundaries attribution required","boundary_use":"Administrative context; simplified geometry"},"geometry":{"type":"Polygon","coordinates":[[[122.339941124,11.665985981000063],[122.34226940100007,11.671053404000077],[122.34126114600008,11.676805829000045],[122.3426680770001,11.686016331000076],[122.33774184200001,11.688861832000043],[122.33284564100006,11.694215339000039],[122.32562196300012,11.696771345000059],[122.32456826600003,11.695375256000034],[122.32118052100009,11.696023872000069],[122.31607568000004,11.698224353000057],[122.31240439200008,11.703812147000065],[122.30466485600004,11.69743145800004],[122.30413789600004,11.692904644000066],[122.30099452600007,11.691353975000027],[122.29181234400005,11.681598670000028],[122.29142653400004,11.679526488000022],[122.28436853800008,11.67348172800007],[122.29616098200006,11.669942993000063],[122.30176779800001,11.664211442000067],[122.3127771390001,11.66040623400005],[122.3186930490001,11.655114615000059],[122.32534431400006,11.65551687900006],[122.32934412100008,11.655818811000074],[122.33505461900006,11.663993044000051],[122.339941124,11.665985981000063]]]}},{"type":"Feature","properties":{"shapeName":"Libacao","shapeISO":"","shapeID":"30758251B40401951871819","shapeGroup":"PHL","shapeType":"ADM3","source":"geoBoundaries; NAMRIA / PSA / OCHA Philippines","reference_year":2020,"license":"CC BY 3.0 IGO (original source); geoBoundaries attribution required","boundary_use":"Administrative context; simplified geometry"},"geometry":{"type":"Polygon","coordinates":[[[122.34450612900002,11.515651492000075],[122.3305855540001,11.511804120000022],[122.33138172500003,11.508109202000071],[122.33003297800008,11.506658662000063],[122.32309838000003,11.505806151000058],[122.32101163800007,11.498451661000047],[122.31574388900003,11.499736788000064],[122.31012809100002,11.503594109000062],[122.30634525900007,11.498528959000055],[122.30192126700001,11.498176322000063],[122.29826666500003,11.502824719000046],[122.29448383200008,11.503049124000029],[122.29387384200004,11.498324488000037],[122.29134460900002,11.495738205000066],[122.28255885300007,11.49282863700006],[122.2752976490001,11.481733448000057],[122.27223695400005,11.481386359000055],[122.26989418500011,11.469124580000027],[122.26741197400008,11.46426754600003],[122.26300014800006,11.462435516000028],[122.26216365900007,11.459048840000037],[122.25900775200012,11.45586398000006],[122.25926833200003,11.448394034000046],[122.25695206900002,11.445759285000065],[122.25803720100009,11.434809262000044],[122.25572758300007,11.423974435000048],[122.25922597500005,11.417860740000037],[122.25970148600004,11.402746325000066],[122.25718807700002,11.389024475000042],[122.24971578200007,11.378155682000056],[122.249545957,11.37329869000007],[122.23989990400003,11.359916490000046],[122.23772614600011,11.354448129000048],[122.22780837300002,11.347858924000036],[122.22110905200009,11.333958159000076],[122.20604443700006,11.32207231500007],[122.198838625,11.312916448000067],[122.19990772800008,11.311955905000048],[122.21426972200004,11.311229724000043],[122.2468685550001,11.31767639900005],[122.27312304000009,11.329970397000068],[122.28457033600012,11.337788511000042],[122.29410500200004,11.346676979000051],[122.29807632200004,11.34834911400003],[122.307316624,11.358372303000067],[122.32272178100004,11.370715178000069],[122.32608554300009,11.374853227000074],[122.33066536900003,11.38503061800003],[122.33654564100004,11.391278405000037],[122.33889209400002,11.40015535200007],[122.34515057400006,11.408734009000057],[122.34383648300002,11.413885789000062],[122.34602993900012,11.41838057700005],[122.346888895,11.42802212500004],[122.34910326300007,11.43138925200003],[122.34951486000011,11.439508286000034],[122.34691606700005,11.443791483000041],[122.34244036600012,11.445644327000025],[122.34090034000008,11.451226920000067],[122.35026956900003,11.468728781000038],[122.35144734800008,11.47402317700005],[122.36399910400007,11.48992879900004],[122.36673603700001,11.499205208000035],[122.36656778300005,11.505565213000068],[122.3659284800001,11.50832028000002],[122.35869285500007,11.509697660000029],[122.3551168140001,11.510044090000065],[122.3502276480001,11.508132837000062],[122.34450612900002,11.515651492000075]]]}},{"type":"Feature","properties":{"shapeName":"Madalag","shapeISO":"","shapeID":"30758251B43949907765478","shapeGroup":"PHL","shapeType":"ADM3","source":"geoBoundaries; NAMRIA / PSA / OCHA Philippines","reference_year":2020,"license":"CC BY 3.0 IGO (original source); geoBoundaries attribution required","boundary_use":"Administrative context; simplified geometry"},"geometry":{"type":"Polygon","coordinates":[[[122.33184276300005,11.537100825000039],[122.32707670800005,11.534157838000056],[122.31682027400007,11.534026346000076],[122.31314410000005,11.532739180000021],[122.3115120010001,11.534906956000043],[122.308590879,11.535331392000046],[122.31008889100008,11.539151321000077],[122.30792571200004,11.542125678000048],[122.30394704600008,11.540874034000069],[122.29873229900011,11.547779738000031],[122.2915136580001,11.55198477600004],[122.29029185400009,11.556460917000038],[122.29076002200009,11.563312153000027],[122.29332923600009,11.566463722000037],[122.2932625520001,11.569116578000035],[122.28695602100004,11.57011071100004],[122.28416932500011,11.56581028000005],[122.28193934800004,11.565294539000035],[122.2712095500001,11.565914603000067],[122.26906717500003,11.56112279100006],[122.26596663100008,11.558278255000062],[122.25425215700011,11.557287631000065],[122.22529974600002,11.550006893000045],[122.21424738400003,11.545702720000065],[122.15406662400005,11.534144826000045],[122.15490996200003,11.531966966000027],[122.15265778000003,11.526003156000058],[122.14768554500006,11.519027254000036],[122.14430580100009,11.519452017000049],[122.135959737,11.505061038000065],[122.13431169100011,11.495484698000041],[122.13469255600012,11.468518533000065],[122.16159341800005,11.445353982000029],[122.16475939000009,11.440168321000044],[122.16743032400007,11.427320184000052],[122.16787967700009,11.400919157000033],[122.18310280000003,11.396460957000045],[122.18810468400011,11.392383335000034],[122.19372804200009,11.374901635000072],[122.19191046500009,11.363839978000044],[122.18924641800004,11.360142933000077],[122.18641926600003,11.350139166000076],[122.18272222200005,11.34595280800005],[122.18254389100002,11.341997935000052],[122.18456384000001,11.332032606000041],[122.19194277500003,11.319999393000046],[122.198838625,11.312916448000067],[122.20604443700006,11.32207231500007],[122.22110905200009,11.333958159000076],[122.22780837300002,11.347858924000036],[122.23772614600011,11.354448129000048],[122.23989990400003,11.359916490000046],[122.249545957,11.37329869000007],[122.24971578200007,11.378155682000056],[122.25718807700002,11.389024475000042],[122.25970148600004,11.402746325000066],[122.25922597500005,11.417860740000037],[122.25572758300007,11.423974435000048],[122.25803720100009,11.434809262000044],[122.25695206900002,11.445759285000065],[122.25926833200003,11.448394034000046],[122.25900775200012,11.45586398000006],[122.26216365900007,11.459048840000037],[122.26300014800006,11.462435516000028],[122.26741197400008,11.46426754600003],[122.26989418500011,11.469124580000027],[122.27223695400005,11.481386359000055],[122.2752976490001,11.481733448000057],[122.28255885300007,11.49282863700006],[122.29134460900002,11.495738205000066],[122.29387384200004,11.498324488000037],[122.29448383200008,11.503049124000029],[122.29826666500003,11.502824719000046],[122.30192126700001,11.498176322000063],[122.30634525900007,11.498528959000055],[122.31012809100002,11.503594109000062],[122.31574388900003,11.499736788000064],[122.32101163800007,11.498451661000047],[122.32309838000003,11.505806151000058],[122.33003297800008,11.506658662000063],[122.33138172500003,11.508109202000071],[122.3305855540001,11.511804120000022],[122.34450612900002,11.515651492000075],[122.34092735700006,11.519066101000021],[122.33846095400008,11.526316911000038],[122.33184276300005,11.537100825000039]]]}},{"type":"Feature","properties":{"shapeName":"Makato","shapeISO":"","shapeID":"30758251B47000748246298","shapeGroup":"PHL","shapeType":"ADM3","source":"geoBoundaries; NAMRIA / PSA / OCHA Philippines","reference_year":2020,"license":"CC BY 3.0 IGO (original source); geoBoundaries attribution required","boundary_use":"Administrative context; simplified geometry"},"geometry":{"type":"Polygon","coordinates":[[[122.31240439200008,11.703812147000065],[122.31389264600011,11.712170488000027],[122.31322837800008,11.71708779200003],[122.30993539700012,11.718360732000065],[122.31014278900011,11.720530936000046],[122.30758002200002,11.722390054000073],[122.30814294100003,11.723760320000054],[122.30646158900004,11.724945415000036],[122.30529130700006,11.723878829000057],[122.30557041500003,11.727248662000022],[122.30401948400004,11.726258526000038],[122.30371856700003,11.728162840000039],[122.3070690830001,11.73072737700005],[122.30852426700005,11.735048016000064],[122.31244967100008,11.733687150000037],[122.31114719100003,11.732577796000044],[122.31286604900004,11.730584350000072],[122.3148133520001,11.731757018000053],[122.31961642600004,11.730633281000053],[122.32051397500004,11.739370015000077],[122.30558478000012,11.745682198000054],[122.28515461800009,11.760082422000039],[122.28385807000006,11.757440417000055],[122.28059747100008,11.758506742000066],[122.27773510700001,11.755347117000042],[122.2749576550001,11.754479163000042],[122.27718277300005,11.75013939400003],[122.2742001680001,11.747866933000068],[122.27358556400009,11.744491382000035],[122.2661085090001,11.74192690700005],[122.26020768300009,11.737132877000022],[122.25242118300002,11.735797654000066],[122.25052918400002,11.733831588000044],[122.24220093500003,11.718618653000021],[122.23981350300005,11.710845620000043],[122.23825889700004,11.687248913000076],[122.23384302200009,11.68047011300007],[122.22991632700007,11.681464990000052],[122.21256441800006,11.668958631000066],[122.2194537260001,11.667762966000055],[122.23249216800002,11.668104585000037],[122.23575322400006,11.669912899000053],[122.2489932530001,11.671972147000076],[122.26102897400006,11.67196440500004],[122.26407290100008,11.67455878800007],[122.28436853800008,11.67348172800007],[122.29142653400004,11.679526488000022],[122.29181234400005,11.681598670000028],[122.30099452600007,11.691353975000027],[122.30413789600004,11.692904644000066],[122.30466485600004,11.69743145800004],[122.31240439200008,11.703812147000065]]]}},{"type":"Feature","properties":{"shapeName":"Malay","shapeISO":"","shapeID":"30758251B40609813959698","shapeGroup":"PHL","shapeType":"ADM3","source":"geoBoundaries; NAMRIA / PSA / OCHA Philippines","reference_year":2020,"license":"CC BY 3.0 IGO (original source); geoBoundaries attribution required","boundary_use":"Administrative context; simplified geometry"},"geometry":{"type":"MultiPolygon","coordinates":[[[[122.0033233050001,11.825534597000058],[122.00918981400002,11.823263690000033],[122.010665904,11.822885206000024],[122.007091037,11.836337374000038],[121.99482104600008,11.854186755000057],[121.99442888200008,11.857755449000024],[121.99019350900005,11.866147763000072],[121.98466399300003,11.870422353000038],[121.98003645600011,11.886501086000067],[121.97580108200009,11.893599258000052],[121.97740895600009,11.899324855000032],[121.97650697800009,11.902619034000054],[121.97403634300008,11.906423027000073],[121.97065798300002,11.907677984000031],[121.97153086000003,11.912128575000054],[121.96948496100003,11.91372300100005],[121.96743942700004,11.919442149000076],[121.95856848400001,11.926351048000072],[121.9594933410001,11.929799196000033],[121.9575214670001,11.934206225000025],[121.95442791900007,11.936228068000048],[121.95449567000003,11.938678689000028],[121.95004265400007,11.938205346000075],[121.95037166200007,11.92843203800004],[121.9487303520001,11.927692785000033],[121.94993502200009,11.927647379000064],[121.95003389900012,11.924852127000065],[121.94729195500008,11.917372750000027],[121.91675449600007,11.902394094000044],[121.91194777900012,11.902766462000045],[121.91186134000009,11.900690594000025],[121.9114562100001,11.902231591000032],[121.90072703600003,11.901572448000024],[121.89463762800005,11.900393972000074],[121.890721686,11.897919116000025],[121.88708203300007,11.89988237600005],[121.884927231,11.899394839000024],[121.88386629000001,11.896694242000024],[121.88508357400008,11.893971373000056],[121.90572223800007,11.870509535000053],[121.9123337200001,11.86910664800007],[121.93335604600009,11.858689274000028],[121.95196391500008,11.856769548000045],[121.9649449850001,11.851536477000025],[121.96918401100004,11.847070361000021],[121.98186323900006,11.842187912000043],[121.99253649900004,11.835753676000024],[122.0033233050001,11.825534597000058]]],[[[121.95819675300004,11.94546794100006],[121.95704491200001,11.94614265100006],[121.95776617000001,11.944638764000047],[121.95819675300004,11.94546794100006]]],[[[121.92167722400006,11.999300319000042],[121.9063006990001,11.99096908000007],[121.90500536700006,11.98812164800006],[121.90733648500009,11.985453218000032],[121.90675574800002,11.982416924000063],[121.90913228400007,11.98029491400007],[121.909691769,11.977187454000045],[121.91421040700004,11.974341845000026],[121.92416211900002,11.961779904000025],[121.93037117200004,11.950715241000069],[121.93298089200005,11.939541924000025],[121.93742840200002,11.939359693000029],[121.93869316500002,11.940588568000067],[121.94116097900007,11.939587433000042],[121.94345064100003,11.940546480000023],[121.94581274200004,11.946215902000063],[121.9493655550001,11.947347903000036],[121.9478261810001,11.947749846000022],[121.94691713000009,11.950520218000065],[121.948316696,11.95209056300007],[121.9476402030001,11.954627174000052],[121.94405217200006,11.953743919000033],[121.94603614300001,11.956001419000074],[121.94243574300003,11.955995393000023],[121.9413225720001,11.957230948000074],[121.93826741300006,11.954435723000074],[121.93472403400006,11.955470123000055],[121.93437710300009,11.957106577000047],[121.93548962400007,11.957064769000056],[121.93681548300003,11.958457466000027],[121.93516753800009,11.957509671000025],[121.93414457500012,11.95850686600005],[121.93368233600006,11.960088130000031],[121.9349720780001,11.960913272000028],[121.932245082,11.96108031600005],[121.9272077070001,11.970022767000046],[121.93072978600003,11.97773939800004],[121.9300826970001,11.982099807000054],[121.92825107200008,11.980957681000064],[121.92594698900007,11.98330433600006],[121.92455626500009,11.990769562000025],[121.92583273800005,11.99174705300004],[121.92547046200002,11.99668377100005],[121.92822209200006,11.998221585000067],[121.92167722400006,11.999300319000042]]]]}},{"type":"Feature","properties":{"shapeName":"Malinao","shapeISO":"","shapeID":"30758251B87685774313166","shapeGroup":"PHL","shapeType":"ADM3","source":"geoBoundaries; NAMRIA / PSA / OCHA Philippines","reference_year":2020,"license":"CC BY 3.0 IGO (original source); geoBoundaries attribution required","boundary_use":"Administrative context; simplified geometry"},"geometry":{"type":"Polygon","coordinates":[[[122.32534431400006,11.65551687900006],[122.3186930490001,11.655114615000059],[122.3127771390001,11.66040623400005],[122.30176779800001,11.664211442000067],[122.29616098200006,11.669942993000063],[122.28436853800008,11.67348172800007],[122.26407290100008,11.67455878800007],[122.26102897400006,11.67196440500004],[122.2489932530001,11.671972147000076],[122.23575322400006,11.669912899000053],[122.23249216800002,11.668104585000037],[122.2194537260001,11.667762966000055],[122.21256441800006,11.668958631000066],[122.21103730400012,11.666196300000024],[122.21498563700004,11.661561300000074],[122.21665330400003,11.65353179300007],[122.21330111000009,11.647686943000053],[122.21347301700007,11.642529722000063],[122.21179468600008,11.638855291000027],[122.20328032900011,11.634868410000024],[122.17915631800008,11.631557271000077],[122.16624963400011,11.634530539000025],[122.15435656500006,11.634327816000052],[122.14523403900012,11.637301084000057],[122.1431978710001,11.64543599600006],[122.14205087300002,11.641073437000045],[122.14370989200006,11.631853198000044],[122.14204835200007,11.62906057300006],[122.14231530000006,11.618848266000043],[122.14542100100005,11.60385185900003],[122.14911687500012,11.595908877000056],[122.14293310200003,11.579441943000063],[122.13948399700007,11.557853427000055],[122.141238971,11.55300274900003],[122.15046290400005,11.541309500000068],[122.15406662400005,11.534144826000045],[122.21424738400003,11.545702720000065],[122.22529974600002,11.550006893000045],[122.25425215700011,11.557287631000065],[122.26596663100008,11.558278255000062],[122.26906717500003,11.56112279100006],[122.2712095500001,11.565914603000067],[122.28193934800004,11.565294539000035],[122.28416932500011,11.56581028000005],[122.28695602100004,11.57011071100004],[122.2932625520001,11.569116578000035],[122.29849460900004,11.575132360000055],[122.30386851000003,11.575961971000027],[122.30476377100001,11.57871340500003],[122.3035493110001,11.584279684000023],[122.31296756900008,11.595036427000025],[122.31398420500011,11.603609142000039],[122.31155539100007,11.608416631000068],[122.31285766200006,11.609516623000047],[122.3121432690001,11.618199244000039],[122.3134346710001,11.621139246000041],[122.30903189300011,11.624780496000028],[122.30938616500009,11.632913089000056],[122.31371976100002,11.636316985000065],[122.31446951700002,11.644969181000022],[122.32382648500004,11.650292455000056],[122.32534431400006,11.65551687900006]]]}},{"type":"Feature","properties":{"shapeName":"Nabas","shapeISO":"","shapeID":"30758251B57634921708927","shapeGroup":"PHL","shapeType":"ADM3","source":"geoBoundaries; NAMRIA / PSA / OCHA Philippines","reference_year":2020,"license":"CC BY 3.0 IGO (original source); geoBoundaries attribution required","boundary_use":"Administrative context; simplified geometry"},"geometry":{"type":"MultiPolygon","coordinates":[[[[122.10169358200005,11.829836091000061],[122.0867349770001,11.834405111000024],[122.05128086700006,11.855122753000046],[122.03607051100005,11.866912076000062],[122.03427151800008,11.871083671000065],[122.0226300710001,11.882833623000067],[122.0184560460001,11.893225010000037],[122.00033174300006,11.90770238400006],[121.99938639400011,11.912869194000052],[121.99099784700002,11.910549310000022],[121.98914295000009,11.91311786600005],[121.9835184860001,11.914176540000028],[121.97622396200006,11.92034615700004],[121.97377019400005,11.920099741000058],[121.97031867400005,11.922972800000025],[121.96082769600002,11.93480502500006],[121.96062247100008,11.936800282000036],[121.95449567000003,11.938678689000028],[121.95442791900007,11.936228068000048],[121.9575214670001,11.934206225000025],[121.9594933410001,11.929799196000033],[121.95856848400001,11.926351048000072],[121.96743942700004,11.919442149000076],[121.96948496100003,11.91372300100005],[121.97153086000003,11.912128575000054],[121.97065798300002,11.907677984000031],[121.97403634300008,11.906423027000073],[121.97650697800009,11.902619034000054],[121.97740895600009,11.899324855000032],[121.97580108200009,11.893599258000052],[121.98003645600011,11.886501086000067],[121.98466399300003,11.870422353000038],[121.99019350900005,11.866147763000072],[121.99442888200008,11.857755449000024],[121.99482104600008,11.854186755000057],[122.007091037,11.836337374000038],[122.010665904,11.822885206000024],[122.06392905100006,11.794101714000021],[122.07541857100011,11.784862795000038],[122.0923394880001,11.776767171000074],[122.10177976800003,11.779390557000056],[122.10901278300003,11.779049931000031],[122.10399619100008,11.787607797000021],[122.1033723920001,11.79474704200004],[122.10116193500005,11.80042755900007],[122.09860071900005,11.801174580000065],[122.09612487700008,11.805848799000046],[122.09768295100002,11.814386185000046],[122.0964236860001,11.816243066000027],[122.09682921100011,11.82098131600003],[122.10169358200005,11.829836091000061]]],[[[121.95776617000001,11.944638764000047],[121.9595169700001,11.943180701000074],[121.95819675300004,11.94546794100006],[121.95776617000001,11.944638764000047]]]]}},{"type":"Feature","properties":{"shapeName":"New Washington","shapeISO":"","shapeID":"30758251B16145813320152","shapeGroup":"PHL","shapeType":"ADM3","source":"geoBoundaries; NAMRIA / PSA / OCHA Philippines","reference_year":2020,"license":"CC BY 3.0 IGO (original source); geoBoundaries attribution required","boundary_use":"Administrative context; simplified geometry"},"geometry":{"type":"MultiPolygon","coordinates":[[[[122.43831121700009,11.616457430000025],[122.43427342200005,11.614258317000065],[122.43064175500001,11.614075440000022],[122.4320057430001,11.611266456000067],[122.42986400500001,11.605062148000059],[122.43123273600008,11.603428343000076],[122.43472115000009,11.603624683000021],[122.43686712700003,11.607467910000025],[122.44436808800003,11.612472877000073],[122.44448580200003,11.614889103000053],[122.43831121700009,11.616457430000025]]],[[[122.43119635100004,11.62532691000007],[122.42237258800003,11.621614855000075],[122.42238302500004,11.620069482000076],[122.4257561610001,11.621321583000054],[122.42856157100005,11.620229768000058],[122.42822934300011,11.617419165000058],[122.42385548100003,11.614135503000057],[122.42451564300006,11.612299389000043],[122.43059177600003,11.614680323000073],[122.43301498400001,11.614403194000033],[122.43706820200009,11.617418632000067],[122.43119635100004,11.62532691000007]]],[[[122.41703593700004,11.630473713000072],[122.41416046600011,11.629795596000065],[122.41188057200009,11.626413385000035],[122.41674133300012,11.618692415000055],[122.42190050300007,11.619905939000034],[122.42225586300003,11.621794031000036],[122.41785524800002,11.625019277000035],[122.4184886270001,11.629937607000045],[122.41703593700004,11.630473713000072]]],[[[122.42079726600002,11.63458706700004],[122.41987621300007,11.63401467400007],[122.42140886800007,11.625269758000059],[122.42943968000009,11.627826758000026],[122.4291290000001,11.633050413000035],[122.42544171200007,11.632768866000049],[122.42079726600002,11.63458706700004]]],[[[122.40479636300006,11.64533761000007],[122.40058917100009,11.641778440000053],[122.39804651700001,11.636310090000052],[122.40405010200004,11.63292708800003],[122.40601672800005,11.636854095000047],[122.41151278300003,11.636815944000034],[122.41273800300007,11.637925462000055],[122.41109290000009,11.64206684900006],[122.40479636300006,11.64533761000007]]],[[[122.42716352800005,11.650678661000029],[122.41882667300001,11.647056860000077],[122.41835200700007,11.642301306000036],[122.4202986140001,11.640375003000031],[122.42458974300007,11.641284086000041],[122.42499952500009,11.635636418000047],[122.43038855500004,11.634662391000063],[122.43093589300008,11.628916606000075],[122.43953144800003,11.619233050000048],[122.44604615600008,11.617267311000035],[122.44887372300002,11.613909463000027],[122.44963134000011,11.614562818000024],[122.45021579400009,11.611376664000034],[122.45901175000006,11.608399447000068],[122.45867627400003,11.611978917000044],[122.44391438900004,11.623384484000042],[122.43816789200002,11.631755110000029],[122.43210341200006,11.63592815900006],[122.42847451700004,11.650250928000048],[122.42716352800005,11.650678661000029]]],[[[122.41490747600005,11.654771427000071],[122.41071044900002,11.652887200000066],[122.41273879700009,11.648168758000054],[122.41565938000008,11.651005674000032],[122.41809194500001,11.651091002000044],[122.41490747600005,11.654771427000071]]],[[[122.37691653700006,11.612349438000024],[122.37849810800003,11.613919553000073],[122.38449737500002,11.615232525000067],[122.3938880930001,11.611481250000054],[122.394999718,11.613977753000029],[122.3944656970001,11.619218282000077],[122.39615524800001,11.619834150000031],[122.4013528370001,11.617261847000066],[122.40223492100006,11.615711146000024],[122.40120556700003,11.612875200000076],[122.40592025500007,11.60615348600004],[122.40963062300011,11.605908679000038],[122.41281725500005,11.601863397000045],[122.41601918700007,11.601616428000057],[122.4180993650001,11.606102261000046],[122.41959187900011,11.600793140000064],[122.4211857460001,11.601270580000062],[122.42337140200004,11.597420714000066],[122.42921116700006,11.603020486000048],[122.42856851300007,11.605570808000039],[122.4303705640001,11.611695295000061],[122.42572621800002,11.610780476000059],[122.4220176560001,11.611867607000022],[122.4220299430001,11.61516802400007],[122.42561513200008,11.61780667100004],[122.4248148580001,11.618463911000049],[122.41565124200008,11.61651252400003],[122.41428500100005,11.620809112000074],[122.41074434600012,11.617560112000035],[122.41265153900008,11.621271963000027],[122.4122057290001,11.623309462000066],[122.4102658490001,11.621699557000056],[122.41118779200008,11.626016254000035],[122.40972996500011,11.62950440800006],[122.41227971800004,11.62977793400006],[122.41323907700007,11.631505479000054],[122.41264511500003,11.635540671000058],[122.40670674000012,11.634947861000057],[122.40343657000005,11.629910254000038],[122.3971948190001,11.635908670000049],[122.39903536400004,11.638975863000041],[122.39861638600007,11.645491374000073],[122.40896703700002,11.646399650000035],[122.40941393800006,11.651882550000039],[122.4079912730001,11.652619536000032],[122.40363219800008,11.650380565000034],[122.40476180700011,11.649792638000065],[122.40224317600007,11.649529503000053],[122.40223677100005,11.653072885000029],[122.40466948900007,11.652055295000025],[122.40532142600011,11.65679405700007],[122.40879980800003,11.656064515000025],[122.40869410500011,11.657871441000054],[122.41018923800004,11.658399514000052],[122.41144524000003,11.656208112000058],[122.41277262200003,11.65635000800006],[122.41342595800006,11.658492138000042],[122.41585621500008,11.654913322000027],[122.41687116900005,11.656470898000066],[122.41868407700008,11.65579642800003],[122.42016265300003,11.650604798000074],[122.422182313,11.650840672000072],[122.42386033100001,11.653985387000034],[122.42507325000008,11.65257917300005],[122.42801834500005,11.653616574000068],[122.43019207900011,11.651891009000053],[122.43335540500004,11.640304142000048],[122.43436826800007,11.64105167300005],[122.43338384000003,11.640206356000022],[122.4341786870001,11.638255379000043],[122.43901773200002,11.634607612000025],[122.44132808200004,11.635625455000024],[122.43975073700005,11.633258369000032],[122.44413810700007,11.626844518000041],[122.44570463100001,11.627729759000033],[122.44558636900001,11.625346556000068],[122.44907680600011,11.624669654000058],[122.4503610810001,11.622832907000031],[122.45122714700005,11.623545942000021],[122.45099450600003,11.622367514000075],[122.46090888300012,11.613729682000042],[122.4652185970001,11.612676106000038],[122.46671484500007,11.613898882000058],[122.46660559500003,11.612306510000053],[122.47043287600002,11.611138183000037],[122.4713329860001,11.609507528000051],[122.47398021600009,11.609907815000042],[122.47223404200008,11.609452954000062],[122.47221324200007,11.607728768000072],[122.47519820200012,11.606098467000038],[122.47654295100006,11.606971611000063],[122.47862348900003,11.603524708000066],[122.47973324200007,11.603893992000053],[122.4789473510001,11.602016794000065],[122.48219516600011,11.598506609000026],[122.48087165100003,11.595325588000037],[122.48372557900007,11.59648607400004],[122.48361259,11.59497293000004],[122.4862866310001,11.595658297000057],[122.48821684600011,11.592964961000064],[122.48951420300011,11.59844742200005],[122.49440155000002,11.604596126000047],[122.49223316500002,11.609953887000074],[122.46651988200006,11.624570584000026],[122.452686631,11.63471985800004],[122.42577978800011,11.659076303000063],[122.4104835390001,11.677755790000049],[122.41021865900007,11.675587535000034],[122.41191625800002,11.674694739000074],[122.40440146100002,11.672880017000068],[122.40491863200009,11.671346038000024],[122.40650859100003,11.67227532000004],[122.40703448500005,11.670439302000034],[122.40401289700003,11.67043007500007],[122.40463566800008,11.667593012000054],[122.40276274400003,11.66691488500004],[122.40101783900002,11.663372460000062],[122.39396187500006,11.662792667000076],[122.39576688900001,11.667879526000036],[122.39350241600005,11.670559699000023],[122.39098633600008,11.670625335000068],[122.39170834200002,11.66929071900006],[122.38919226100006,11.66815301400004],[122.3888312580001,11.66336152100007],[122.38344903400002,11.660090616000048],[122.37913887800005,11.661972207000076],[122.38163308000003,11.663908495000044],[122.38160026100002,11.666719941000053],[122.37744325900007,11.672124045000032],[122.37301276900007,11.673950938000075],[122.3699825330001,11.672375653000074],[122.369818441,11.670559699000023],[122.36760336000009,11.670041656000024],[122.36699052300003,11.668293104000043],[122.36465724400011,11.668169412000054],[122.35930740800006,11.663778439000055],[122.3554299870001,11.656122009000057],[122.35260467800003,11.650326501000052],[122.36786125100002,11.63044971100004],[122.36775850800007,11.62124024800005],[122.37222395300012,11.615956228000073],[122.37403963400004,11.617673764000074],[122.37683676400002,11.616446953000036],[122.37691653700006,11.612349438000024]]]]}},{"type":"Feature","properties":{"shapeName":"Numancia","shapeISO":"","shapeID":"30758251B41299657560178","shapeGroup":"PHL","shapeType":"ADM3","source":"geoBoundaries; NAMRIA / PSA / OCHA Philippines","reference_year":2020,"license":"CC BY 3.0 IGO (original source); geoBoundaries attribution required","boundary_use":"Administrative context; simplified geometry"},"geometry":{"type":"Polygon","coordinates":[[[122.36468202800006,11.73362273400005],[122.363512237,11.734078298000043],[122.36502457900008,11.738556981000045],[122.34174163500006,11.738033839000025],[122.33734676400002,11.736281117000033],[122.33791456900008,11.735064848000036],[122.33663047400012,11.736111954000023],[122.33027406700012,11.735575428000061],[122.32051397500004,11.739370015000077],[122.31961642600004,11.730633281000053],[122.3148133520001,11.731757018000053],[122.31286604900004,11.730584350000072],[122.31114719100003,11.732577796000044],[122.31244967100008,11.733687150000037],[122.30852426700005,11.735048016000064],[122.3070690830001,11.73072737700005],[122.30371856700003,11.728162840000039],[122.30401948400004,11.726258526000038],[122.30557041500003,11.727248662000022],[122.30529130700006,11.723878829000057],[122.30646158900004,11.724945415000036],[122.30814294100003,11.723760320000054],[122.30758002200002,11.722390054000073],[122.31014278900011,11.720530936000046],[122.30993539700012,11.718360732000065],[122.31322837800008,11.71708779200003],[122.31389264600011,11.712170488000027],[122.31240439200008,11.703812147000065],[122.31607568000004,11.698224353000057],[122.32118052100009,11.696023872000069],[122.32456826600003,11.695375256000034],[122.32562196300012,11.696771345000059],[122.33284564100006,11.694215339000039],[122.33774184200001,11.688861832000043],[122.3426680770001,11.686016331000076],[122.3445556590001,11.68852516000004],[122.343776122,11.695151226000064],[122.34688968500006,11.698090541000056],[122.34600926700011,11.702368824000075],[122.35411779600008,11.704223047000028],[122.35642568000003,11.708963191000066],[122.35439976500004,11.712515515000064],[122.35742156100002,11.713330616000064],[122.35960241900011,11.711908136000034],[122.36260032500002,11.715905345000067],[122.36342765000006,11.719440486000053],[122.36231906600005,11.726280897000038],[122.36468202800006,11.73362273400005]]]}},{"type":"Feature","properties":{"shapeName":"Tangalan","shapeISO":"","shapeID":"30758251B5891263412683","shapeGroup":"PHL","shapeType":"ADM3","source":"geoBoundaries; NAMRIA / PSA / OCHA Philippines","reference_year":2020,"license":"CC BY 3.0 IGO (original source); geoBoundaries attribution required","boundary_use":"Administrative context; simplified geometry"},"geometry":{"type":"Polygon","coordinates":[[[122.21256441800006,11.668958631000066],[122.22991632700007,11.681464990000052],[122.23384302200009,11.68047011300007],[122.23825889700004,11.687248913000076],[122.23981350300005,11.710845620000043],[122.24220093500003,11.718618653000021],[122.25052918400002,11.733831588000044],[122.25242118300002,11.735797654000066],[122.26020768300009,11.737132877000022],[122.2661085090001,11.74192690700005],[122.27358556400009,11.744491382000035],[122.2742001680001,11.747866933000068],[122.27718277300005,11.75013939400003],[122.2749576550001,11.754479163000042],[122.27773510700001,11.755347117000042],[122.28059747100008,11.758506742000066],[122.28385807000006,11.757440417000055],[122.28515461800009,11.760082422000039],[122.26581258700003,11.776495050000051],[122.25842803700004,11.785607028000072],[122.2578850430001,11.788997488000064],[122.2591415500001,11.791244612000071],[122.25666847500008,11.794151290000059],[122.24505779100002,11.78584298100003],[122.2384679160001,11.786739381000075],[122.2269929470001,11.793500696000024],[122.22385023400011,11.799318963000076],[122.224787708,11.804326530000026],[122.22183007800004,11.813700832000052],[122.21624649900002,11.785294770000064],[122.21045987600007,11.771848435000038],[122.206961094,11.758254922000049],[122.20519611500004,11.731149491000053],[122.20091473200011,11.704206308000039],[122.20966066100004,11.672659499000076],[122.21256441800006,11.668958631000066]]]}}]}